FALCONSAT-6             
1 43815U 18099BK  26068.72544389  .00005029  00000+0  19477-3 0  9998
2 43815  97.3865 145.8165 0014370 297.0944 181.0714 15.26532865398556
STARLINK-31710          
1 59378U 24062E   26068.71549580  .00001032  00000+0  46990-4 0  9994
2 59378  53.1602 255.6643 0001228  96.7544 263.3597 15.30191972109632
